[{"OBJECT_NAME":"STARLINK-3277","OBJECT_ID":"2021-125AC","EPOCH":"2026-03-09T17:07:47.659584","MEAN_MOTION":15.08839756,"ECCENTRICITY":0.00012546,"INCLINATION":53.2164,"RA_OF_ASC_NODE":248.8572,"ARG_OF_PERICENTER":103.0431,"MEAN_ANOMALY":257.0701,"EPHEMERIS_TYPE":0,"CLASSIFICATION_TYPE":"U","NORAD_CAT_ID":50182,"ELEMENT_SET_NO":999,"REV_AT_EPOCH":23664,"BSTAR":3.5185108e-5,"MEAN_MOTION_DOT":2.72e-6,"MEAN_MOTION_DDOT":0},{"OBJECT_NAME":"UPPER FREE FLYER","OBJECT_ID":"2018-099F","EPOCH":"2026-03-09T16:53:56.769792","MEAN_MOTION":15.10728091,"ECCENTRICITY":0.00115819,"INCLINATION":97.4495,"RA_OF_ASC_NODE":120.4613,"ARG_OF_PERICENTER":289.4209,"MEAN_ANOMALY":70.5769,"EPHEMERIS_TYPE":0,"CLASSIFICATION_TYPE":"U","NORAD_CAT_ID":43763,"ELEMENT_SET_NO":999,"REV_AT_EPOCH":39752,"BSTAR":0.00029221901,"MEAN_MOTION_DOT":4.788e-5,"MEAN_MOTION_DDOT":0}]
